1 45217U 20012AR  23030.85105891 -.00000035  00000-0  16523-4 0  9999
2 45217  53.0539  76.6226 0001309  98.1665 261.9473 15.06395042164225
1 45217U 20012AR  23031.51452420  .00001558  00000-0  12349-3 0  9997
2 45217  53.0539  73.6436 0001343  88.4057 271.7086 15.06397517163384
1 45217U 20012AR  23031.84625728  .00000115  00000-0  26636-4 0  9999
2 45217  53.0537  72.1540 0001326  90.4108 269.7033 15.06401971164372
1 45217U 20012AR  23032.50971900  .00001568  00000-0  12409-3 0  9994
2 45217  53.0537  69.1750 0001377  90.3738 269.7408 15.06407329164475
1 45217U 20012AR  23032.50971900  .00001568  00000-0  12409-3 0  9994
2 45217  53.0537  69.1750 0001377  90.3738 269.7408 15.06407329163531
1 45217U 20012AR  23032.97416202 -.00000456  00000-0 -11717-4 0  9993
2 45217  53.0539  67.0898 0001279  96.0158 264.0976 15.06389940163607
1 45217U 20012AR  23033.30589470 -.00000346  00000-0 -43468-5 0  9996
2 45217  53.0536  65.5974 0001473 114.9730 245.1412 15.06391929164598
1 45217U 20012AR  23034.10205509 -.00000195  00000-0  58219-5 0  9994
2 45217  53.0540  62.0262 0001312  99.3579 260.7558 15.06398591163779
1 45217U 20012AR  23034.30109346  .00000352  00000-0  42531-4 0  9991
2 45217  53.0540  61.1335 0001319  93.1363 266.9777 15.06401900164748
1 45217U 20012AR  23035.22995527  .00001494  00000-0  11920-3 0  9992
2 45217  53.0554  56.9719 0001381 104.3607 255.7536 15.06393551163948
1 45217U 20012AR  23035.36264832  .00001647  00000-0  12945-3 0  9993
2 45217  53.0549  56.3735 0001319  99.3737 260.7401 15.06395018164906
1 45217U 20012AR  23035.76072995  .00001270  00000-0  10412-3 0  9993
2 45217  53.0543  54.5824 0001251  92.4384 267.6748 15.06396187164960
1 45217U 20012AR  23036.35784983  .00000804  00000-0  72845-4 0  9997
2 45217  53.0545  51.9026 0001333  91.6804 268.4338 15.06400925165057
1 45217U 20012AR  23036.35784983  .00000804  00000-0  72845-4 0  9997
2 45217  53.0545  51.9026 0001333  91.6804 268.4338 15.06400925164113
1 45217U 20012AR  23036.75593334  .00000752  00000-0  69398-4 0  9990
2 45217  53.0547  50.1138 0001404  87.7052 272.4097 15.06397456165112
1 45217U 20012AR  23037.41939726  .00003295  00000-0  24000-3 0  9998
2 45217  53.0544  47.1354 0001472  90.5292 269.5865 15.06398534165217
1 45217U 20012AR  23037.41939726  .00003295  00000-0  24000-3 0  9998
2 45217  53.0544  47.1354 0001472  90.5292 269.5865 15.06398534164272
1 45217U 20012AR  23037.75113235  .00001209  00000-0  10005-3 0  9997
2 45217  53.0545  45.6473 0001421  86.3354 273.7797 15.06401720165267
1 45217U 20012AR  23038.28189768  .00002162  00000-0  16391-3 0  9993
2 45217  53.0547  43.2627 0001393  99.9289 260.1857 15.06412076165341
1 45217U 20012AR  23038.28189768  .00002162  00000-0  16391-3 0  9993
2 45217  53.0547  43.2627 0001393  99.9289 260.1857 15.06412076164407
1 45217U 20012AR  23039.27710662  .00001499  00000-0  11947-3 0  9990
2 45217  53.0536  38.7962 0001238  92.2205 267.8926 15.06403621164551
1 45217U 20012AR  23039.47614132  .00002820  00000-0  20808-3 0  9992
2 45217  53.0539  37.9020 0001284  95.5820 264.5316 15.06413295165523
1 45217U 20012AR  23039.47614132  .00002820  00000-0  20808-3 0  9992
2 45217  53.0539  37.9020 0001284  95.5820 264.5316 15.06413295164588
1 45217U 20012AR  23040.27231208  .00000609  00000-0  59769-4 0  9993
2 45217  53.0554  34.3278 0001376  89.5423 270.5724 15.06400522164708
1 45217U 20012AR  23041.00213569 -.00000527  00000-0 -16486-4 0  9995
2 45217  53.0542  31.0519 0001185  91.0553 269.0571 15.06388369164816
1 45217U 20012AR  23041.06848245  .00000644  00000-0  62129-4 0  9999
2 45217  53.0545  30.7555 0001240  89.1428 270.9703 15.06391864165763
1 45217U 20012AR  23041.33386509  .00005207  00000-0  36815-3 0  9991
2 45217  53.0549  29.5658 0001457 103.2768 256.8383 15.06404498165802
1 45217U 20012AR  23041.33386509  .00005207  00000-0  36815-3 0  9991
2 45217  53.0549  29.5658 0001457 103.2768 256.8383 15.06404498164867
1 45217U 20012AR  23042.39540563  .00012109  00000-0  82977-3 0  9999
2 45217  53.0544  24.7973 0001416 113.6823 246.4314 15.06428644165028
1 45217U 20012AR  23042.46175250  .00014361  00000-0  98028-3 0  9990
2 45217  53.0545  24.4988 0001212 108.2288 251.8833 15.06429425165979
1 45217U 20012AR  23042.92619073 -.00002618  00000-0 -15691-3 0  9996
2 45217  53.0526  22.4083 0002220 114.8955 245.2265 15.06391194166042
1 45217U 20012AR  23043.19157807  .00017930  00000-0  12193-2 0  9992
2 45217  53.0539  21.2228 0001414 111.4144 248.6996 15.06406413165140
1 45217U 20012AR  23043.39061839  .00041250  00000-0  27705-2 0  9990
2 45217  53.0542  20.3295 0001354 104.2670 255.8470 15.06420291166110
1 45217U 20012AR  23043.65601317  .00014795  00000-0  10102-2 0  9997
2 45217  53.0540  19.1377 0001762  92.0524 268.0667 15.06394673165218
1 45217U 20012AR  23044.18678892  .00031221  00000-0  21051-2 0  9996
2 45217  53.0541  16.7557 0001546  92.5765 267.5401 15.06409067166231
1 45217U 20012AR  23044.65121710  .00028497  00000-0  19236-2 0  9993
2 45217  53.0543  14.6705 0000522 111.1643 248.9401 15.06412904165361
1 45217U 20012AR  23044.91660753  .00026660  00000-0  18013-2 0  9999
2 45217  53.0543  13.4789 0001550 106.4479 253.6680 15.06412261165409
1 45217U 20012AR  23045.18199359  .00017684  00000-0  12027-2 0  9993
2 45217  53.0543  12.2886 0001404  93.9770 266.1379 15.06411688166380
1 45217U 20012AR  23045.18199359  .00017684  00000-0  12027-2 0  9993
2 45217  53.0543  12.2886 0001404  93.9770 266.1379 15.06411688165446
1 45217U 20012AR  23045.84546340  .00019444  00000-0  13202-2 0  9994
2 45217  53.0573   9.3095 0000574 308.4218  51.6720 15.06412381166489
1 45217U 20012AR  23045.84546340  .00019444  00000-0  13202-2 0  9994
2 45217  53.0573   9.3095 0000574 308.4218  51.6720 15.06412381165545
1 45217U 20012AR  23046.11084999  .00007465  00000-0  51942-3 0  9996
2 45217  53.0538   8.1180 0001168  88.3547 271.7576 15.06404417165586
1 45217U 20012AR  23046.57527598  .00006681  00000-0  46691-3 0  9997
2 45217  53.0547   6.0340 0001238  93.4161 266.6969 15.06406804166591
1 45217U 20012AR  23046.90700731  .00005438  00000-0  38358-3 0  9996
2 45217  53.0541   4.5443 0001223  89.0586 271.0543 15.06411257166640
1 45217U 20012AR  23047.17238434  .00013616  00000-0  93039-3 0  9996
2 45217  53.0543   3.3532 0001168 109.4732 250.6384 15.06433413165740
1 45217U 20012AR  23047.57047467 -.00001013  00000-0 -49097-4 0  9990
2 45217  53.0545   1.5662 0001822  75.5559 284.5632 15.06398710166746
1 45217U 20012AR  23047.57047467 -.00001013  00000-0 -49097-4 0  9990
2 45217  53.0545   1.5662 0001822  75.5559 284.5632 15.06398710165802
1 45217U 20012AR  23048.23394845 -.00004507  00000-0 -28398-3 0  9990
2 45217  53.0544 358.5874 0001192  86.4477 273.6648 15.06383593165901
1 45217U 20012AR  23048.56569111  .00002363  00000-0  17760-3 0  9993
2 45217  53.0547 357.0958 0001211  84.9213 275.1914 15.06370499166897
1 45217U 20012AR  23048.56569111  .00002363  00000-0  17760-3 0  9993
2 45217  53.0547 357.0958 0001211  84.9213 275.1914 15.06370499165953
1 45217U 20012AR  23048.89742867 -.00001286  00000-0 -67501-4 0  9994
2 45217  53.0545 355.6091 0001225  86.6991 273.4138 15.06378889166940
1 45217U 20012AR  23049.16281987  .00012400  00000-0  85011-3 0  9999
2 45217  53.0545 354.4177 0001316  84.5107 275.6032 15.06389901166044
1 45217U 20012AR  23049.56090210  .00013738  00000-0  93938-3 0  9992
2 45217  53.0545 352.6299 0001316  84.8038 275.3101 15.06399231167047
1 45217U 20012AR  23050.15801736  .00021754  00000-0  14738-2 0  9999
2 45217  53.0544 349.9502 0001313  85.5380 274.5759 15.06425447166191
1 45217U 20012AR  23050.55610032  .00009833  00000-0  67795-3 0  9996
2 45217  53.0550 348.1625 0001408  96.1851 263.9298 15.06407152167195
1 45217U 20012AR  23050.95418662 -.00002390  00000-0 -14164-3 0  9990
2 45217  53.0545 346.3755 0001429 108.8587 251.2557 15.06387646166319
1 45217U 20012AR  23051.15322909  .00005647  00000-0  39777-3 0  9994
2 45217  53.0547 345.4821 0001361 103.4922 256.6219 15.06391879167288
1 45217U 20012AR  23051.94938652  .00029815  00000-0  20102-2 0  9993
2 45217  53.0549 341.9088 0001320 109.3378 250.7753 15.06433964166460
1 45217U 20012AR  23052.21476523  .00032091  00000-0  21604-2 0  9996
2 45217  53.0548 340.7174 0001307 109.5085 250.6046 15.06453061167447
1 45217U 20012AR  23052.81189312  .00019897  00000-0  13505-2 0  9999
2 45217  53.0547 338.0367 0001570 107.6912 252.4249 15.06411181167532
1 45217U 20012AR  23052.81189312  .00019897  00000-0  13505-2 0  9999
2 45217  53.0547 338.0367 0001570 107.6912 252.4249 15.06411181166597
1 45217U 20012AR  23053.14363086  .00028536  00000-0  19271-2 0  9994
2 45217  53.0546 336.5475 0001222  88.3998 271.7131 15.06395997166648
1 45217U 20012AR  23053.20997787  .00030726  00000-0  20728-2 0  9995
2 45217  53.0545 336.2496 0001211  87.4852 272.6275 15.06397949167597
1 45217U 20012AR  23053.87343716  .00021337  00000-0  14458-2 0  9996
2 45217  53.0541 333.2714 0001213  90.7043 269.4085 15.06430592167690
1 45217U 20012AR  23054.20516017  .00025098  00000-0  16954-2 0  9991
2 45217  53.0536 331.7825 0001183  91.4440 268.6684 15.06453764167743
1 45217U 20012AR  23054.20516017  .00025098  00000-0  16954-2 0  9991
2 45217  53.0536 331.7825 0001183  91.4440 268.6684 15.06453764166809
1 45217U 20012AR  23054.80228825  .00008008  00000-0  55587-3 0  9992
2 45217  53.0532 329.1015 0000872  45.9069 314.1992 15.06399435167839
1 45217U 20012AR  23054.93498314  .00011644  00000-0  79941-3 0  9998
2 45217  53.0532 328.5058 0001513  93.1368 266.9794 15.06395537166910
1 45217U 20012AR  23055.20037615  .00031784  00000-0  21435-2 0  9993
2 45217  53.0528 327.3145 0001291  68.9416 291.1711 15.06392514167895
1 45217U 20012AR  23055.86383998  .00017148  00000-0  11668-2 0  9998
2 45217  53.0529 324.3357 0001274  68.0057 292.1067 15.06416827167991
1 45217U 20012AR  23056.12922114  .00017843  00000-0  12127-2 0  9990
2 45217  53.0527 323.1446 0001284  68.2175 291.8951 15.06431994168035
